{"type": "FeatureCollection", "features": [ {"type": "Feature", "properties": {"norad_id": 42741, "name": "EUTELSAT 172B", "group": "eutelsat", "lat": -0.007816226766535855, "lon": 19.127716754792342, "alt_km": 35787.05896788345, "timestamp": "2025-12-03T08:58:45.670756+00:00", "meta": {"OBJECT_NAME": "EUTELSAT 172B", "OBJECT_ID": "2017-029B", "EPOCH": "2025-12-03T02:35:17.160864", "MEAN_MOTION": 1.00270941, "ECCENTRICITY": 1.88e-05, "INCLINATION": 0.0103, "RA_OF_ASC_NODE": 174.5773, "ARG_OF_PERICENTER": 43.9673, "MEAN_ANOMALY": 64.4777, "EPHEMERIS_TYPE": 0, "CLASSIFICATION_TYPE": "U", "NORAD_CAT_ID": 42741, "ELEMENT_SET_NO": 999, "REV_AT_EPOCH": 3176, "BSTAR": 0, "MEAN_MOTION_DOT": 1.4e-07, "MEAN_MOTION_DDOT": 0}, "tle": {"line1": "1 42741U 17029B   25337.10783751  .00000014  00000+0  00000+0 0  9992", "line2": "2 42741   0.0103 174.5773 0000188  43.9673  64.4777  1.00270941 31763"}}, "geometry": {"type": "Point", "coordinates": [19.127716754792342, -0.007816226766535855]}}, {"type": "Feature", "properties": {"norad_id": 44334, "name": "EUTELSAT 7C", "group": "eutelsat", "lat": 0.0067580243947661205, "lon": -145.89710785883233, "alt_km": 35773.64396278373, "timestamp": "2025-12-03T08:58:45.670768+00:00", "meta": {"OBJECT_NAME": "EUTELSAT 7C", "OBJECT_ID": "2019-034B", "EPOCH": "2025-12-03T01:48:14.168736", "MEAN_MOTION": 1.00268682, "ECCENTRICITY": 0.0003374, "INCLINATION": 0.0767, "RA_OF_ASC_NODE": 182.9108, "ARG_OF_PERICENTER": 52.7146, "MEAN_ANOMALY": 230.595, "EPHEMERIS_TYPE": 0, "CLASSIFICATION_TYPE": "U", "NORAD_CAT_ID": 44334, "ELEMENT_SET_NO": 999, "REV_AT_EPOCH": 486, "BSTAR": 0, "MEAN_MOTION_DOT": 6.7e-07, "MEAN_MOTION_DDOT": 0}, "tle": {"line1": "1 44334U 19034B   25337.07516399  .00000067  00000+0  00000+0 0  9996", "line2": "2 44334   0.0767 182.9108 0003374  52.7146 230.5950  1.00268682  4866"}}, "geometry": {"type": "Point", "coordinates": [-145.89710785883233, 0.0067580243947661205]}}, {"type": "Feature", "properties": {"norad_id": 44624, "name": "EUTELSAT 5 WEST B", "group": "eutelsat", "lat": -0.0809559416874117, "lon": -157.88898390278217, "alt_km": 35776.000777372705, "timestamp": "2025-12-03T08:58:45.670780+00:00", "meta": {"OBJECT_NAME": "EUTELSAT 5 WEST B", "OBJECT_ID": "2019-067A", "EPOCH": "2025-12-03T01:44:44.505312", "MEAN_MOTION": 1.00272718, "ECCENTRICITY": 0.0003688, "INCLINATION": 0.0715, "RA_OF_ASC_NODE": 327.4038, "ARG_OF_PERICENTER": 285.8199, "MEAN_ANOMALY": 200.1434, "EPHEMERIS_TYPE": 0, "CLASSIFICATION_TYPE": "U", "NORAD_CAT_ID": 44624, "ELEMENT_SET_NO": 999, "REV_AT_EPOCH": 2247, "BSTAR": 0, "MEAN_MOTION_DOT": -2.2e-07, "MEAN_MOTION_DDOT": 0}, "tle": {"line1": "1 44624U 19067A   25337.07273733 -.00000022  00000+0  00000+0 0  9998", "line2": "2 44624   0.0715 327.4038 0003688 285.8199 200.1434  1.00272718 22476"}}, "geometry": {"type": "Point", "coordinates": [-157.88898390278217, -0.0809559416874117]}}, {"type": "Feature", "properties": {"norad_id": 45027, "name": "EUTELSAT KONNECT", "group": "eutelsat", "lat": 0.026948168266872834, "lon": -145.6999191060696, "alt_km": 35784.79919718095, "timestamp": "2025-12-03T08:58:45.670791+00:00", "meta": {"OBJECT_NAME": "EUTELSAT KONNECT", "OBJECT_ID": "2020-005B", "EPOCH": "2025-12-03T01:48:14.168736", "MEAN_MOTION": 1.00268081, "ECCENTRICITY": 0.0001716, "INCLINATION": 0.067, "RA_OF_ASC_NODE": 99.7816, "ARG_OF_PERICENTER": 186.3051, "MEAN_ANOMALY": 180.3357, "EPHEMERIS_TYPE": 0, "CLASSIFICATION_TYPE": "U", "NORAD_CAT_ID": 45027, "ELEMENT_SET_NO": 999, "REV_AT_EPOCH": 2236, "BSTAR": 0, "MEAN_MOTION_DOT": 6.8e-07, "MEAN_MOTION_DDOT": 0}, "tle": {"line1": "1 45027U 20005B   25337.07516399  .00000068  00000+0  00000+0 0  9997", "line2": "2 45027   0.0670  99.7816 0001716 186.3051 180.3357  1.00268081 22368"}}, "geometry": {"type": "Point", "coordinates": [-145.6999191060696, 0.026948168266872834]}}, {"type": "Feature", "properties": {"norad_id": 49056, "name": "EUTELSAT QUANTUM", "group": "eutelsat", "lat": -0.03187032951772644, "lon": -105.16934996758265, "alt_km": 35770.51560724291, "timestamp": "2025-12-03T08:58:45.670803+00:00", "meta": {"OBJECT_NAME": "EUTELSAT QUANTUM", "OBJECT_ID": "2021-069B", "EPOCH": "2025-12-03T01:59:50.557056", "MEAN_MOTION": 1.00271603, "ECCENTRICITY": 0.0003748, "INCLINATION": 0.0169, "RA_OF_ASC_NODE": 10.728, "ARG_OF_PERICENTER": 255.0351, "MEAN_ANOMALY": 244.0851, "EPHEMERIS_TYPE": 0, "CLASSIFICATION_TYPE": "U", "NORAD_CAT_ID": 49056, "ELEMENT_SET_NO": 999, "REV_AT_EPOCH": 1596, "BSTAR": 0, "MEAN_MOTION_DOT": 1.45e-06, "MEAN_MOTION_DDOT": 0}, "tle": {"line1": "1 49056U 21069B   25337.08322404  .00000145  00000+0  00000+0 0  9993", "line2": "2 49056   0.0169  10.7280 0003748 255.0351 244.0851  1.00271603 15968"}}, "geometry": {"type": "Point", "coordinates": [-105.16934996758265, -0.03187032951772644]}}, {"type": "Feature", "properties": {"norad_id": 53765, "name": "EUTELSAT KONNECT VHTS", "group": "eutelsat", "lat": 0.023470335169489074, "lon": -150.19273713050944, "alt_km": 35775.88389996135, "timestamp": "2025-12-03T08:58:45.670815+00:00", "meta": {"OBJECT_NAME": "EUTELSAT KONNECT VHTS", "OBJECT_ID": "2022-110A", "EPOCH": "2025-12-03T01:46:59.289312", "MEAN_MOTION": 1.00268981, "ECCENTRICITY": 0.0002765, "INCLINATION": 0.0598, "RA_OF_ASC_NODE": 107.4799, "ARG_OF_PERICENTER": 122.6736, "MEAN_ANOMALY": 231.4548, "EPHEMERIS_TYPE": 0, "CLASSIFICATION_TYPE": "U", "NORAD_CAT_ID": 53765, "ELEMENT_SET_NO": 999, "REV_AT_EPOCH": 486, "BSTAR": 0, "MEAN_MOTION_DOT": 3.6e-07, "MEAN_MOTION_DDOT": 0}, "tle": {"line1": "1 53765U 22110A   25337.07429733  .00000036  00000+0  00000+0 0  9994", "line2": "2 53765   0.0598 107.4799 0002765 122.6736 231.4548  1.00268981  4864"}}, "geometry": {"type": "Point", "coordinates": [-150.19273713050944, 0.023470335169489074]}}, {"type": "Feature", "properties": {"norad_id": 54048, "name": "EUTELSAT HOTBIRD 13F", "group": "eutelsat", "lat": -0.07358643507034453, "lon": -139.88153709112714, "alt_km": 35791.87825520042, "timestamp": "2025-12-03T08:58:45.670827+00:00", "meta": {"OBJECT_NAME": "EUTELSAT HOTBIRD 13F", "OBJECT_ID": "2022-134A", "EPOCH": "2025-12-02T19:57:38.448000", "MEAN_MOTION": 1.00271371, "ECCENTRICITY": 0.0001918, "INCLINATION": 0.0542, "RA_OF_ASC_NODE": 289.0481, "ARG_OF_PERICENTER": 66.1354, "MEAN_ANOMALY": 29.1621, "EPHEMERIS_TYPE": 0, "CLASSIFICATION_TYPE": "U", "NORAD_CAT_ID": 54048, "ELEMENT_SET_NO": 999, "REV_AT_EPOCH": 1140, "BSTAR": 0, "MEAN_MOTION_DOT": 1.07e-06, "MEAN_MOTION_DDOT": 0}, "tle": {"line1": "1 54048U 22134A   25336.83169500  .00000107  00000+0  00000+0 0  9990", "line2": "2 54048   0.0542 289.0481 0001918  66.1354  29.1621  1.00271371 11409"}}, "geometry": {"type": "Point", "coordinates": [-139.88153709112714, -0.07358643507034453]}}, {"type": "Feature", "properties": {"norad_id": 54225, "name": "EUTELSAT HOTBIRD 13G", "group": "eutelsat", "lat": -0.03486166176580689, "lon": -139.85841679936956, "alt_km": 35778.95815836973, "timestamp": "2025-12-03T08:58:45.670849+00:00", "meta": {"OBJECT_NAME": "EUTELSAT HOTBIRD 13G", "OBJECT_ID": "2022-146A", "EPOCH": "2025-12-03T00:07:14.496096", "MEAN_MOTION": 1.00271219, "ECCENTRICITY": 0.0002105, "INCLINATION": 0.0475, "RA_OF_ASC_NODE": 238.4149, "ARG_OF_PERICENTER": 306.4933, "MEAN_ANOMALY": 262.0024, "EPHEMERIS_TYPE": 0, "CLASSIFICATION_TYPE": "U", "NORAD_CAT_ID": 54225, "ELEMENT_SET_NO": 999, "REV_AT_EPOCH": 549, "BSTAR": 0, "MEAN_MOTION_DOT": 1.07e-06, "MEAN_MOTION_DDOT": 0}, "tle": {"line1": "1 54225U 22146A   25337.00502889  .00000107  00000+0  00000+0 0  9991", "line2": "2 54225   0.0475 238.4149 0002105 306.4933 262.0024  1.00271219  5490"}}, "geometry": {"type": "Point", "coordinates": [-139.85841679936956, -0.03486166176580689]}}, {"type": "Feature", "properties": {"norad_id": 54259, "name": "EUTELSAT 10B", "group": "eutelsat", "lat": 0.018458053651988406, "lon": -142.85036581788646, "alt_km": 35783.68238511187, "timestamp": "2025-12-03T08:58:45.670874+00:00", "meta": {"OBJECT_NAME": "EUTELSAT 10B", "OBJECT_ID": "2022-157A", "EPOCH": "2025-12-03T01:49:06.585024", "MEAN_MOTION": 1.00268388, "ECCENTRICITY": 0.0001044, "INCLINATION": 0.0603, "RA_OF_ASC_NODE": 103.8512, "ARG_OF_PERICENTER": 72.435, "MEAN_ANOMALY": 293.178, "EPHEMERIS_TYPE": 0, "CLASSIFICATION_TYPE": "U", "NORAD_CAT_ID": 54259, "ELEMENT_SET_NO": 999, "REV_AT_EPOCH": 1106, "BSTAR": 0, "MEAN_MOTION_DOT": 8.7e-07, "MEAN_MOTION_DDOT": 0}, "tle": {"line1": "1 54259U 22157A   25337.07577066  .00000087  00000+0  00000+0 0  9993", "line2": "2 54259   0.0603 103.8512 0001044  72.4350 293.1780  1.00268388 11060"}}, "geometry": {"type": "Point", "coordinates": [-142.85036581788646, 0.018458053651988406]}}, {"type": "Feature", "properties": {"norad_id": 59346, "name": "EUTELSAT 36D", "group": "eutelsat", "lat": -0.04598387725823042, "lon": -117.02696228943591, "alt_km": 35785.042471829336, "timestamp": "2025-12-03T08:58:45.670888+00:00", "meta": {"OBJECT_NAME": "EUTELSAT 36D", "OBJECT_ID": "2024-059A", "EPOCH": "2025-12-03T01:56:28.381056", "MEAN_MOTION": 1.00270583, "ECCENTRICITY": 6.06e-05, "INCLINATION": 0.0226, "RA_OF_ASC_NODE": 339.286, "ARG_OF_PERICENTER": 322.1144, "MEAN_ANOMALY": 195.7445, "EPHEMERIS_TYPE": 0, "CLASSIFICATION_TYPE": "U", "NORAD_CAT_ID": 59346, "ELEMENT_SET_NO": 999, "REV_AT_EPOCH": 618, "BSTAR": 0, "MEAN_MOTION_DOT": 0, "MEAN_MOTION_DDOT": 0}, "tle": {"line1": "1 59346U 24059A   25337.08088404  .00000000  00000+0  00000+0 0  9997", "line2": "2 59346   0.0226 339.2860 0000606 322.1144 195.7445  1.00270583  6185"}}, "geometry": {"type": "Point", "coordinates": [-117.02696228943591, -0.04598387725823042]}}]}